{"fetched_at":"2026-03-29T16:36:15Z","count":15609,"tles":[{"name":"STARLINK-3628","line1":"1 51783U 22017R   26087.86087026  .00000435  00000+0  45379-4 0  9999","line2":"2 51783  53.2165 253.1065 0001171  85.0279 275.0847 15.08852201225319","category":"Starlink"}]}