{
  "norad_id": 51783,
  "name": "STARLINK-3628",
  "history": [
    {
      "epoch": "2026-03-28T20:39:39.190464Z",
      "apogee_km": 540.5166593150107,
      "perigee_km": 538.8955319639781,
      "latitude_deg": 1.0573169679293711e-05,
      "longitude_deg": 116.9179659033718,
      "height_km": 540.5317232344679,
      "semi_major_axis_km": 6917.843095639494,
      "eccentricity": 0.00011717,
      "inclination_deg": 53.2165,
      "raan_deg": 253.1065,
      "arg_perigee_deg": 85.0279,
      "mean_anomaly_deg": 275.0847,
      "mean_motion_rev_day": 15.08852201
    }
  ]
}